ALOS-4 (DAICHI-4)       
1 60182U 24123A   24266.85901308  .00004040  00000+0  54737-3 0  9999
2 60182  97.9211   2.1130 0001443  95.6921 264.4455 14.79483091 12389
